NANOSATC-BR1            
1 40024U 14033Q   24199.88506349  .00016989  00000+0  12301-2 0  9990
2 40024  98.0626 173.2778 0007810  74.6585 285.5502 15.04039922547861
QB50P1                  
1 40025U 14033R   24199.83615075  .00013175  00000+0  10534-2 0  9993
2 40025  98.0391 161.6015 0015531  66.6964 293.5891 15.00259515547472
QB50P2                  
1 40032U 14033Y   24199.83140302  .00012571  00000+0  10409-2 0  9997
2 40032  98.0091 153.1010 0012217  60.9390 299.3053 14.98960253547261
PERSEUS-M2              
1 40037U 14033AD  24199.77173429  .00004478  00000+0  46167-3 0  9999
2 40037  97.9263 130.6736 0014849  94.1698 266.1217 14.90656094546386
PERSEUS-M1              
1 40039U 14033AF  24199.86861064  .00004548  00000+0  47133-3 0  9992
2 40039  97.9061 126.7386 0014570  93.5124 266.7760 14.90440207546251
POLYITAN-1              
1 40042U 14033AJ  24199.84685095  .00017987  00000+0  13271-2 0  9998
2 40042  98.0711 165.4023 0013868  38.2513 321.9693 15.03263757547443
TIGRISAT                
1 40043U 14033AK  24199.92123756  .00005809  00000+0  77060-3 0  9996
2 40043  97.6977   1.3304 0054716 202.1494 157.7354 14.79142255542007
AEROCUBE 6A             
1 40045U 14033AM  24199.94697482  .00011925  00000+0  14075-2 0  9994
2 40045  97.6708  12.2207 0050222 179.3028 180.8265 14.83934924542353
AEROCUBE 6B             
1 40046U 14033AN  24199.69499014  .00013155  00000+0  15205-2 0  9991
2 40046  97.6677  10.7103 0048968 175.2676 184.9012 14.84813971542371
UKUBE-1                 
1 40074U 14037F   24199.80767140  .00013182  00000+0  12284-2 0  9991
2 40074  98.3414 131.6243 0003438 357.0151   3.1046 14.94390918543358
BRITE-PL2 (HEWELIUSZ)   
1 40119U 14049B   24199.86105700  .00004241  00000+0  45497-3 0  9997
2 40119  97.8843 299.3955 0014476 262.6281  97.3291 14.89085836537140
AEROCUBE 5C             
1 40965U 15058B   24199.54491243  .00005750  00000+0  52378-3 0  9994
2 40965  64.7703 268.4299 0192102 298.9755  59.2213 14.83060436261537
AEROCUBE 7              
1 40966U 15058C   24199.65515364  .00007346  00000+0  64109-3 0  9996
2 40966  64.7675 261.5723 0186931 298.5962  59.6449 14.85005076261638
FOX-1A (AO-85)          
1 40967U 15058D   24199.61778204  .00005921  00000+0  54916-3 0  9999
2 40967  64.7786 282.1813 0191334 294.7662  63.3643 14.82460840  9504
SINOD-D 1               
1 40968U 15058E   24199.81756024  .00008083  00000+0  71528-3 0  9998
2 40968  64.7784 274.0405 0185968 293.7027  64.4666 14.84529055 12361
SNAP-3 ALICE            
1 40970U 15058G   24199.43475966  .00017738  00000+0  12004-2 0  9992
2 40970  64.7691 230.6771 0155955 291.9236  66.5363 14.97172840 10310
LMRST-SAT               
1 40971U 15058H   24199.72875878  .00005982  00000+0  55331-3 0  9990
2 40971  64.7774 277.3751 0192509 296.1227  62.0185 14.82401716  9527
SNAP-3 EDDIE            
1 40972U 15058J   24199.43784952  .00017770  00000+0  11889-2 0  9998
2 40972  64.7671 224.0200 0156497 292.8418  65.6235 14.97512395 12412
PROPCUBE 3              
1 40973U 15058K   24199.58193003  .00006770  00000+0  60060-3 0  9990
2 40973  64.7713 265.3622 0188914 297.5152  60.6867 14.84246447 10548
BISONSAT                
1 40974U 15058L   24199.47954596  .00014221  00000+0  10718-2 0  9995
2 40974  64.7671 238.9445 0170013 295.2819  63.0760 14.91849978 10283
SNAP-3 JIMI             
1 40975U 15058M   24199.53692201  .00010070  00000+0  83115-3 0  9995
2 40975  64.7691 253.0984 0180923 296.5245  61.7413 14.87500216  9541
PROPCUBE 1 (FLORA)      
1 40976U 15058N   24199.67902882  .00005334  00000+0  51420-3 0  9991
2 40976  64.7771 293.1175 0190500 297.3638  60.8193 14.81257083 12314
SINOD-D 3               
1 40977U 15058P   24199.62726696  .00007327  00000+0  67384-3 0  9994
2 40977  64.7762 286.2926 0185119 296.5740  61.6499 14.83301421 10546
VELOX-II                
1 41171U 15077F   24199.54523555  .01435661  11445-2  20294-2 0  9995
2 41171  14.9816 164.7550 0006806 214.0934 145.8962 16.04513280476671
HORYU-4                 
1 41340U 16012D   24199.53997825  .00020758  00000+0  10077-2 0  9993
2 41340  31.0010 137.6587 0010463 279.8735  80.0724 15.17260490462762
RAVAN                   
1 41849U 16067B   24199.90005633  .00016011  00000+0  86305-3 0  9990
2 41849  98.0653  19.4109 0011679 284.6725  75.3211 15.14825133420638
CELTEE 1                
1 41850U 16067C   24199.44793841  .00007217  00000+0  48628-3 0  9990
2 41850  98.1037  10.5134 0002094  97.2680 262.8784 15.07006475419982
OPTICUBE 04             
1 41851U 16067D   24199.91303868  .00005081  00000+0  38136-3 0  9999
2 41851  98.0789   6.1473 0016615 317.5153  42.4784 15.03007603419858
AEROCUBE 8D             
1 41852U 16067E   24199.94286568  .00011645  00000+0  75384-3 0  9999
2 41852  98.1093  10.8669 0005051  18.6602 341.4809 15.08324899420033
AEROCUBE 8C             
1 41853U 16067F   24199.89101641  .00012512  00000+0  81048-3 0  9990
2 41853  98.0898   9.3148 0006882 298.5606  61.4927 15.08272910420011
PROMETHEUS 2-1          
1 41854U 16067G   24199.55826088  .00025792  00000+0  12626-2 0  9992
2 41854  98.1004  16.8307 0011391 315.0855  44.9455 15.18112311420341
PROMETHEUS 2-3          
1 41855U 16067H   24199.95068861  .00024736  00000+0  12124-2 0  9994
2 41855  98.0935  16.7087 0009618 324.7649  35.2946 15.18095221420400
AALTO-1                 
1 42775U 17036L   24199.64701967  .00207179  00000+0  12957-2 0  9998
2 42775  97.0987 229.8289 0006163 118.6355 241.5532 15.76228165393899
CORVUS BC2              
1 42846U 17042X   24199.51822110  .00006651  00000+0  56763-3 0  9990
2 42846  97.3736  22.9355 0006856 323.9228  36.1532 14.97989788381980
CORVUS BC1              
1 42847U 17042Y   24199.81009754  .00006543  00000+0  55592-3 0  9994
2 42847  97.3752  23.6189 0006801 326.3329  33.7461 14.98164813382048
MIRATA                  
1 43015U 17073C   24199.65594711  .00032553  00000+0  14785-2 0  9998
2 43015  97.5917  84.0691 0166878 156.1744 204.7326 15.09051567360928
MAKERSAT 0              
1 43016U 17073D   24199.60379366  .00017898  00000+0  99596-3 0  9990
2 43016  97.5742  77.7518 0193995 179.2242 180.9321 14.99014372360461
GOMX-4B                 
1 43196U 18015E   24199.90438753  .00109510  00000+0  96827-3 0  9992
2 43196  97.6053  15.9781 0007519 196.5010 163.6007 15.68272169360335
GOMX-4A                 
1 43197U 18015F   24199.79522025  .00261411  00000+0  10273-2 0  9995
2 43197  97.5929  21.6718 0006533 198.0307 162.0733 15.86223303360719
CICERO 10               
1 43690U 18088A   24199.91956381  .02724242 -14408-5  12774-2 0  9993
2 43690  84.9896 156.4314 0012074 183.3297 176.7921 16.21492095317114
SIRION PATHFINDER-2     
1 43759U 18099B   24199.91878252  .00009105  00000+0  67720-3 0  9991
2 43759  97.5246 255.2018 0011246 178.1137 182.0133 15.03143495307124
CORVUS BC4              
1 43767U 18099K   24199.89989726  .00009234  00000+0  69983-3 0  9992
2 43767  97.5097 252.3004 0010151 238.6713 121.3519 15.02434263307002
MOVE-II                 
1 43780U 18099Y   24199.70801792  .00034303  00000+0  17221-2 0  9995
2 43780  97.5204 262.4374 0006151 217.5018 142.5787 15.17199715307556
SPACEBEE-7              
1 43816U 18099BL  24199.64475654  .00023121  00000+0  13241-2 0  9996
2 43816  97.5477 262.9902 0010402 175.6147 184.5177 15.12577969307017
SPACEBEE-6              
1 43818U 18099BN  24199.47518646  .00045749  00000+0  17906-2 0  9990
2 43818  97.5398 268.7125 0009275 176.8578 183.2720 15.25630930307527
SHIELDS 1               
1 43850U 18104B   24199.43730537  .00016797  00000+0  43683-3 0  9997
2 43850  85.0224 262.5626 0008525 326.0994  33.9711 15.38753822310816
SONATE                  
1 44400U 19038Q   24199.90962301  .00032713  00000+0  94084-3 0  9991
2 44400  97.7120 195.4076 0014773   6.5495 353.5938 15.35623290278798
LUCKY-7                 
1 44406U 19038W   24199.53657699  .00064733  00000+0  12744-2 0  9996
2 44406  97.7008 199.5876 0009997 352.3212   7.7882 15.46969134279051
DUCHIFAT-3              
1 44854U 19089C   24199.46878096  .00022795  00000+0  11139-2 0  9996
2 44854  36.9556 225.0149 0005184 329.2361  30.8082 15.17481580252873
M2 PATHFINDER           
1 45727U 20037E   24199.52622777  .00005489  00000+0  47614-3 0  9990
2 45727  97.7789  15.8064 0012010  29.6166 330.5733 14.97424185220487
NETSAT-4                
1 46504U 20068U   24199.83767943  .00014979  00000+0  78369-3 0  9992
2 46504  97.8060 157.8244 0007812 252.9094 107.1282 15.15924313208815
NETSAT-3                
1 46505U 20068V   24199.90008855  .00014723  00000+0  78364-3 0  9993
2 46505  97.8037 157.3565 0007028 263.0422  97.0010 15.15325516208814
NETSAT-1                
1 46506U 20068W   24199.85288032  .00011389  00000+0  63858-3 0  9992
2 46506  97.8058 156.7078 0005917 277.5733  82.4825 15.13539056208760
NETSAT-2                
1 46507U 20068X   24199.85648341  .00015600  00000+0  81747-3 0  9993
2 46507  97.8045 157.4647 0005014 283.6376  76.4297 15.15874283208768
WILDTRACKCUBE-SIMBA     
1 47941U 21022K   24199.94335762  .00021748  00000+0  93909-3 0  9990
2 47941  97.4576  96.4504 0016357  43.9330 316.3204 15.22399401183149
SMOG-1                  
1 47964U 21022AJ  24199.75187659  .00841886  29350-3  27446-2 0  9992
2 47964  97.4500 113.5616 0007530 149.9450 210.2257 15.90656582183050
BCCSAT-1                
1 48041U 21022AK  24199.75127154  .00148955  00000+0  21712-2 0  9997
2 48041  97.4578 108.0501 0004198  42.2032 317.9544 15.55174775182673
BEESAT-7                
1 48084U 21022AN  24199.50536400  .00404959  00000+0  23756-2 0  9994
2 48084  97.4491 109.6730 0006364 114.3389 245.8542 15.77154430182518
